STARLINK-34046          
1 64035U 25102P   26169.40278561  .00006512  00000+0  55290-3 0  9992
2 64035  70.0001 220.5756 0003579 271.8610  88.2139 14.98336330 60810
STARLINK-34085          
1 64036U 25102Q   26169.39024794  .00002014  00000+0  17653-3 0  9992
2 64036  69.9996 220.6454 0003485 267.9593  92.1167 14.98336128 61034
STARLINK-34008          
1 64037U 25102R   26169.57800428 -.00000263  00000+0 -14208-4 0  9999
2 64037  69.9990 220.0944 0004204 273.4456  86.6223 14.98339082 61074
STARLINK-34079          
1 64038U 25102S   26169.41510343  .00002614  00000+0  22678-3 0  9996
2 64038  69.9996 220.3314 0003923 268.4531  91.6179 14.98335347 61144
STARLINK-34089          
1 64039U 25102T   26169.54046790  .00001720  00000+0  15186-3 0  9994
2 64039  69.9992 220.3675 0003888 269.3532  90.7182 14.98332568 61058
STARLINK-34117          
1 64040U 25102U   26169.39442424  .00001579  00000+0  14012-3 0  9992
2 64040  69.9995 220.6596 0003721 271.8504  88.2228 14.98333475 60972
STARLINK-34111          
1 64041U 25102V   26169.58220432  .00003100  00000+0  26744-3 0  9994
2 64041  69.9995 220.1108 0003467 269.3772  90.6990 14.98333387 60844
STARLINK-34049          
1 64042U 25102W   26169.40260797  .00002775  00000+0  24025-3 0  9991
2 64042  70.0004 220.6935 0003629 265.9079  94.1665 14.98334607 61030
STARLINK-34096          
1 64043U 25102X   26169.31914968  .00001356  00000+0  12139-3 0  9995
2 64043  69.9998 220.8032 0003682 269.2620  90.8117 14.98333958 60917
STARLINK-34081          
1 64044U 25102Y   26169.39426063  .00002287  00000+0  19936-3 0  9994
2 64044  69.9997 220.6646 0003581 272.1019  87.9730 14.98333296 60978
STARLINK-34033          
1 64045U 25102Z   26169.43599826  .00005716  00000+0  48639-3 0  9990
2 64045  70.0000 220.4042 0003050 271.7776  88.3034 14.98336711 60978
STARLINK-33952          
1 64046U 25102AA  26169.42762851  .00001608  00000+0  14247-3 0  9994
2 64046  70.0009 220.3720 0002463 261.4954  98.5926 14.98340904 61042
STARLINK-33961          
1 64047U 25102AB  26169.31080281  .00000408  00000+0  41979-4 0  9993
2 64047  69.9996 220.7726 0003712 269.3653  90.7080 14.98332198 60901
TIANYI A                
1 64048U 25103A   26169.49212676  .00001158  00000+0  58257-4 0  9999
2 64048  97.4119 242.0253 0001683  89.6098 270.5330 15.19176592 60272
TIANYI B                
1 64049U 25103B   26169.62141282  .00004453  00000+0  21021-3 0  9998
2 64049  97.3793 241.4630 0002667 144.2884 215.8530 15.19946528 60285
TIANYI C                
1 64050U 25103C   26169.62062696  .00001192  00000+0  58572-4 0  9990
2 64050  97.3749 241.2304 0003891 140.3179 219.8342 15.19936696 60288
TIANYI D                
1 64051U 25103D   26169.63781063  .00003112  00000+0  15444-3 0  9992
2 64051  97.3823 240.8312 0002711 158.2783 201.8567 15.18425575 60227
TIANYI E                
1 64052U 25103E   26169.59099861  .00007619  00000+0  31824-3 0  9992
2 64052  97.3742 242.0226 0003843 145.3209 214.8279 15.23903861 60323
TIANYI F                
1 64053U 25103F   26169.61009313  .00003068  00000+0  14974-3 0  9990
2 64053  97.3803 241.0599 0004095 141.7794 218.3732 15.19022402 60267
QPS-SAR-10 (WADATSUMI-I)
1 64055U 25104A   26169.58527632  .00003379  00000+0  26869-3 0  9999
2 64055  42.0040 271.2708 0013149 342.6097  17.4278 15.01787317 59641
TIANQI-16               
1 64058U 25105A   26169.62587973  .00000055  00000+0  12597-3 0  9993
2 64058  44.9855  15.9718 0011151  25.6286 334.5097 13.99154357 55399
TIANQI-17               
1 64059U 25105B   26169.57262268  .00000048  00000+0  12097-3 0  9992
2 64059  44.9816  15.5360 0010425  28.9634 331.1776 13.99156167 55390
TIANQI-18               
1 64060U 25105C   26169.60879219  .00000056  00000+0  12637-3 0  9997
2 64060  44.9862  15.8940 0010583  37.1391 323.0172 13.99137155 55393
TIANQI-20               
1 64061U 25105D   26169.59001392  .00000051  00000+0  12340-3 0  9991
2 64061  44.9868  15.8003 0009959  30.5189 329.6221 13.99140073 55409
CHINASAT 3B             
1 64062U 25106A   26169.57156226 -.00000051  00000+0  00000+0 0  9995
2 64062   0.0293 109.9204 0003026  15.3568 154.5988  1.00271346  4073
STARLINK-11741 [DTC]    
1 64064U 25107A   26169.47929168  .00131341  00000+0  10107-2 0  9998
2 64064  43.0010 211.2452 0001777 273.9755  86.0910 15.70844892 63143
STARLINK-11709 [DTC]    
1 64065U 25107B   26169.52163503  .00103782  00000+0  80131-3 0  9991
2 64065  42.9998 210.6925 0001679 273.2275  86.8401 15.70866949 63157
STARLINK-11737 [DTC]    
1 64066U 25107C   26169.56929334  .00234527  00000+0  17832-2 0  9997
2 64066  42.9990 210.1797 0000743 257.0259 103.0526 15.70798683 63165
STARLINK-11726 [DTC]    
1 64067U 25107D   26169.49509008  .00176235  00000+0  13475-2 0  9992
2 64067  43.0009 210.4764 0001635 275.6518  84.4163 15.70849396 63157
STARLINK-11700 [DTC]    
1 64068U 25107E   26169.53316539  .00068662  00000+0  53411-3 0  9992
2 64068  43.0004 210.7834 0001616 272.4567  87.6116 15.70842653 63154
STARLINK-11649 [DTC]    
1 64069U 25107F   26169.48460039  .00120515  00000+0  92829-3 0  9994
2 64069  43.0019 211.2859 0001974 281.7691  78.2956 15.70861136 63146
STARLINK-11713 [DTC]    
1 64070U 25107G   26169.38915836  .00120989  00000+0  93251-3 0  9990
2 64070  42.9986 211.4103 0000687 146.8527 213.2384 15.70845667 63138
STARLINK-11719 [DTC]    
1 64071U 25107H   26169.46865822  .00162183  00000+0  12377-2 0  9990
2 64071  42.9998 211.1575 0001976 273.0411  87.0231 15.70939007 63140
STARLINK-11733 [DTC]    
1 64072U 25107J   26169.50039648  .00135633  00000+0  10421-2 0  9993
2 64072  43.0020 210.5184 0002259 279.6868  80.3744 15.70866929 63159
STARLINK-11729 [DTC]    
1 64073U 25107K   26169.47397955  .00147323  00000+0  11311-2 0  9996
2 64073  42.9990 211.2005 0001795 260.9779  99.0885 15.70845119 63142
STARLINK-11730 [DTC]    
1 64074U 25107L   26169.46335871  .00080630  00000+0  62449-3 0  9991
2 64074  43.0003 211.1129 0001748 268.7685  91.2983 15.70888852 63140
STARLINK-11723 [DTC]    
1 64075U 25107M   26169.51101580  .00143491  00000+0  11009-2 0  9996
2 64075  43.0005 210.6013 0001586 267.7772  92.2914 15.70875968 63155
STARLINK-11715 [DTC]    
1 64076U 25107N   26169.23544692  .00125849  00000+0  97004-3 0  9998
2 64076  42.9993 211.9632 0001136 256.9929 103.0812 15.70826540 63112
STARLINK-34201          
1 64077U 25107P   26169.55782815  .00012607  00000+0  46649-3 0  9991
2 64077  43.0023 352.1836 0001212 253.3776 106.6943 15.27606278 60453
STARLINK-34190          
1 64078U 25107Q   26169.53213135  .00014347  00000+0  52984-3 0  9996
2 64078  42.9980 351.9911 0001490 298.0807  61.9894 15.27582048 61541
STARLINK-34168          
1 64079U 25107R   26169.51411741  .00007020  00000+0  26408-3 0  9990
2 64079  42.9962 351.8457 0001120 271.3505  88.7218 15.27616116 61546
STARLINK-34098          
1 64080U 25107S   26169.52184860  .00023765  00000+0  87044-3 0  9999
2 64080  43.0023 351.9095 0002115 278.0893  81.9718 15.27575950 61546
STARLINK-34180          
1 64081U 25107T   26169.54369481  .00016909  00000+0  62252-3 0  9992
2 64081  43.0010 352.0755 0001239 271.9249  88.1460 15.27582841 61541
STARLINK-34171          
1 64082U 25107U   26168.92180208  .00013824  00000+0  51057-3 0  9996
2 64082  43.0034 355.1402 0001970 282.8108  77.2524 15.27603304 61456
STARLINK-34126          
1 64083U 25107V   26169.55397200  .00011936  00000+0  44259-3 0  9997
2 64083  43.0033 352.1532 0001425 256.1515 103.9178 15.27577677 60452
STARLINK-34157          
1 64084U 25107W   26169.51927684  .00016074  00000+0  59185-3 0  9991
2 64084  42.9984 351.8821 0003973 283.9407  76.1003 15.27604158 61523
STARLINK-34140          
1 64085U 25107X   26168.88597034  .00021107  00000+0  77413-3 0  9990
2 64085  43.0004 355.7366 0002009 270.8810  89.1812 15.27587583 61421
STARLINK-34132          
1 64086U 25107Y   26169.55011745  .00018839  00000+0  69227-3 0  9998
2 64086  43.0020 352.1196 0001710 250.7276 109.3391 15.27584683 61518
2025-108A               
1 64087U 25108A   26169.60340640  .00003965  00000+0  20864-3 0  9993
2 64087  97.4764 244.3063 0001262 315.4102  44.7029 15.16217777 59535
2025-108B               
1 64088U 25108B   26169.63934041  .00006264  00000+0  30663-3 0  9994
2 64088  97.4725 245.4270 0007684  18.3797 341.7713 15.18509856 59587
2025-108C               
1 64089U 25108C   26169.63415558  .00003752  00000+0  21439-3 0  9992
2 64089  97.4685 243.7351 0010007  40.8530 319.3449 15.13268429 59481
2025-108D               
1 64090U 25108D   26169.63314043  .00003976  00000+0  19382-3 0  9993
2 64090  97.4687 245.2474 0011956   7.6164 352.5249 15.18844692 59581
2025-108E               
1 64091U 25108E   26169.59636789  .00009804  00000+0  40119-3 0  9991
2 64091  97.4668 246.4556 0011376   2.9789 357.1514 15.24471874 59662
2025-108F               
1 64092U 25108F   26169.64152097  .00013597  00000+0  50453-3 0  9999
2 64092  97.4689 247.3488 0010231   4.0475 356.0845 15.27662076 59725
COSMOS 2588             
1 64095U 25109A   26168.72904934  .00005020  00000+0  18012-3 0  9993
2 64095  72.9696 207.4677 0008649 101.2575 258.9593 15.29048636 59690
STARLINK-34178          
1 64096U 25110A   26169.56354970  .00019993  00000+0  68506-3 0  9995
2 64096  53.1605 278.4335 0001303  70.5948 289.5193 15.30212548 61329
STARLINK-34174          
1 64097U 25110B   26169.55730697  .00023952  00000+0  71743-3 0  9996
2 64097  53.1602 276.9869 0001424  70.4455 289.6701 15.34415122 61343
STARLINK-34146          
1 64098U 25110C   26169.59719379  .00022925  00000+0  68730-3 0  9996
2 64098  53.1598 276.5217 0001050 100.6452 259.4669 15.34411108 61347
STARLINK-34074          
1 64099U 25110D   26169.56882415  .00013576  00000+0  46946-3 0  9993
2 64099  53.1617 278.4706 0001637  69.1672 290.9504 15.30212509 61324
